NOAA 15                 
1 25338U 98030A   20269.91305227  .00000032  00000-0  32067-4 0  9996
2 25338  98.7116 294.4244 0009835 336.3708  23.7019 14.25990910163292
DMSP 5D-3 F15 (USA 147) 
1 25991U 99067A   20269.89188289 -.00000089  00000-0 -21632-4 0  9996
2 25991  98.9815 242.0785 0009870 169.8972 273.2466 14.16470864 74644
METEOSAT-8 (MSG-1)      
1 27509U 02040B   20269.55685215  .00000118  00000-0  00000-0 0  9995
2 27509   6.8980  53.6498 0001576 137.4793  55.5712  1.00275153 66296
DMSP 5D-3 F16 (USA 172) 
1 28054U 03048A   20269.88635723 -.00000023  00000-0  11424-4 0  9997
2 28054  98.9224 248.6474 0006671 304.5993 143.3611 14.13645847873979
NOAA 18                 
1 28654U 05018A   20269.88923950  .00000076  00000-0  65965-4 0  9990
2 28654  99.0337 327.2073 0013379 310.6521  49.3486 14.12541815791095
METEOSAT-9 (MSG-2)      
1 28912U 05049B   20269.76456084 -.00000003  00000-0  00000-0 0  9993
2 28912   4.6347  69.7012 0001140  40.9220 172.9119  1.00271823 54076
FORMOSAT-3 FM6          
1 29047U 06011A   20269.45788063  .00000068  00000-0  43126-4 0  9994
2 29047  71.9763 265.8731 0052418 250.3505 109.1970 14.28747513755601
FORMOSAT-3 FM1          
1 29048U 06011B   20269.89911691 -.00000004  00000-0  14689-4 0  9991
2 29048  71.9672 175.7669 0044626 208.9646 150.9013 14.28717201758153
FORMOSAT-3 FM5          
1 29049U 06011C   20269.47444640  .00000055  00000-0  37881-4 0  9995
2 29049  72.0227 348.8505 0036578 235.3782 124.3904 14.28797908753887
FORMOSAT-3 FM3          
1 29050U 06011D   20269.86659274  .00000101  00000-0  31539-4 0  9997
2 29050  72.0144 123.8839 0048727 143.9582 216.4873 14.58948939770971
FORMOSAT-3 FM4          
1 29051U 06011E   20269.68250357  .00000077  00000-0  45454-4 0  9990
2 29051  72.0035 250.2867 0066255 112.2314 248.5868 14.28830729756502
FORMOSAT-3 FM2          
1 29052U 06011F   20269.88471566  .00000046  00000-0  34344-4 0  9992
2 29052  72.0351 324.3832 0040549 194.7364 165.2594 14.28936792754042
EWS-G1 (GOES 13)        
1 29155U 06018A   20269.90990471  .00000015  00000-0  00000-0 0  9991
2 29155   0.1079 135.4362 0008581  69.0569 189.5831  1.00273894 22409
METOP-A                 
1 29499U 06044A   20269.86770833 -.00000018  00000-0  11073-4 0  9994
2 29499  98.5125 313.1651 0001071  65.9820 290.2940 14.21490072722966
DMSP 5D-3 F17 (USA 191) 
1 29522U 06050A   20269.89407131  .00000021  00000-0  34355-4 0  9990
2 29522  98.7998 284.7731 0008788 249.6741 110.3488 14.14017763716900
FENGYUN 3A              
1 32958U 08026A   20269.85853573  .00000016  00000-0  27474-4 0  9991
2 32958  98.4164 250.4396 0009678  50.7570 309.4464 14.18633836638958
FENGYUN 2E              
1 33463U 08066A   20269.92472598 -.00000221  00000-0  00000-0 0  9990
2 33463   4.5481  68.2034 0003371 310.0546  46.0438  1.00279532 43123
NOAA 19                 
1 33591U 09005A   20269.90033242  .00000025  00000-0  38773-4 0  9996
2 33591  99.1973 277.8671 0014463 150.9272 209.2707 14.12432772599310
GOES 14                 
1 35491U 09033A   20269.62997755 -.00000116  00000-0  00000-0 0  9995
2 35491   0.3578 270.1924 0013160 302.3339 274.7543  1.00272869 41154
METEOR-M 1              
1 35865U 09049A   20269.90946383  .00000006  00000-0  21693-4 0  9991
2 35865  98.4483 252.7222 0001081 250.0339 110.0723 14.22250160572055
DMSP 5D-3 F18 (USA 210) 
1 35951U 09057A   20269.92521563  .00000059  00000-0  54158-4 0  9997
2 35951  98.6535 256.4745 0012299  82.2885 277.9684 14.13301216337873
GOES 15                 
1 36411U 10008A   20269.65606671  .00000033  00000-0  00000-0 0  9996
2 36411   0.1170 105.2917 0002220 338.3854  29.0635  1.00268779 38715
COMS 1                  
1 36744U 10032A   20269.86130549 -.00000367  00000-0  00000-0 0  9992
2 36744   0.0220 115.7091 0000852  50.9463 276.6898  1.00274082 30122
FENGYUN 3B              
1 37214U 10059A   20269.90164938 -.00000012  00000-0  17439-4 0  9993
2 37214  99.0552 253.2317 0016950 346.2841  13.7882 14.15958223511894
SUOMI NPP               
1 37849U 11061A   20269.84588500 -.00000009  00000-0  16235-4 0  9998
2 37849  98.7063 206.4393 0001014  58.0229  16.7101 14.19554911461877
FENGYUN 2F              
1 38049U 12002A   20269.97877601 -.00000379  00000-0  00000-0 0  9993
2 38049   2.2922  83.2996 0002006   5.3010  20.7103  1.00284885 31932
METEOSAT-10 (MSG-3)     
1 38552U 12035B   20269.83766455  .00000039  00000-0  00000-0 0  9999
2 38552   1.3221 346.4345 0000964 193.6870 136.0703  1.00264470 29898
METOP-B                 
1 38771U 12049A   20269.91901622 -.00000059  00000-0 -69118-5 0  9997
2 38771  98.7196 327.6520 0002470  82.0277 272.1673 14.21481781416299
FENGYUN 3C              
1 39260U 13052A   20269.90587053 -.00000014  00000-0  14193-4 0  9995
2 39260  98.5401 316.1961 0010131 291.2251  68.7839 14.15845552362837
METEOR-M 2              
1 40069U 14037A   20269.76391119 -.00000027  00000-0  67901-5 0  9998
2 40069  98.4945 303.4670 0005794   3.6728 356.4480 14.20675355322458
HIMAWARI-8              
1 40267U 14060A   20269.79195293 -.00000299  00000-0  00000-0 0  9995
2 40267   0.0173 187.9995 0001168  16.1378 226.6574  1.00269566 21798
FENGYUN 2G              
1 40367U 14090A   20269.99504003 -.00000323  00000-0  00000-0 0  9992
2 40367   2.3169  93.2325 0002153 304.4825  65.3258  1.00269696 21083
METEOSAT-11 (MSG-4)     
1 40732U 15034A   20269.83583258 -.00000026  00000-0  00000-0 0  9999
2 40732   0.6067 270.3106 0002162 258.0530 137.9707  1.00263565 19080
ELEKTRO-L 2             
1 41105U 15074A   20269.90466172 -.00000137  00000-0  00000-0 0  9994
2 41105   1.4350  95.9730 0002782  99.9198 120.5251  1.00271734 17552
HIMAWARI-9              
1 41836U 16064A   20269.86383532 -.00000298  00000-0  00000-0 0  9996
2 41836   0.0171 223.5164 0000594 320.3414 273.0261  1.00271722 14223
GOES 16                 
1 41866U 16071A   20269.53364740 -.00000271  00000-0  00000-0 0  9992
2 41866   0.0150 125.1344 0000732 105.0598 251.5410  1.00272714 14156
FENGYUN 4A              
1 41882U 16077A   20269.92838990 -.00000354  00000-0  00000-0 0  9994
2 41882   0.2393 284.3240 0004082 145.5496  14.0394  1.00278976 14021
CYGFM05                 
1 41884U 16078A   20269.40885716  .00000384  00000-0  21949-4 0  9999
2 41884  34.9559 159.0343 0016469 220.3176 139.6314 15.14687890209270
CYGFM04                 
1 41885U 16078B   20269.08171792  .00000361  00000-0  20443-4 0  9999
2 41885  34.9490 153.7224 0014919 228.3663 131.5771 15.15200877209298
CYGFM02                 
1 41886U 16078C   20269.40405656  .00000411  00000-0  23031-4 0  9997
2 41886  34.9581 153.5196 0015649 227.0086 132.9314 15.15200281209334
CYGFM01                 
1 41887U 16078D   20269.38988004  .00000365  00000-0  21065-4 0  9991
2 41887  34.9526 160.4430 0016922 220.6746 139.2702 15.14499848209259
CYGFM08                 
1 41888U 16078E   20269.09055926  .00000356  00000-0  20316-4 0  9996
2 41888  34.9496 157.6661 0016138 225.3288 134.6108 15.14915887209246
CYGFM06                 
1 41889U 16078F   20269.84456525  .00000438  00000-0  24474-4 0  9990
2 41889  34.9576 149.4721 0014655 230.8207 129.1202 15.15197488209408
CYGFM07                 
1 41890U 16078G   20269.36181551  .00000361  00000-0  20462-4 0  9991
2 41890  34.9514 151.5207 0014392 229.9454 129.9995 15.15192960209335
CYGFM03                 
1 41891U 16078H   20269.35753808  .00000365  00000-0  20664-4 0  9999
2 41891  34.9545 151.8220 0013872 228.7277 131.2240 15.15188312209335
FENGYUN 3D              
1 43010U 17072A   20269.79429395 -.00000001  00000-0  20308-4 0  9991
2 43010  98.7560 208.0068 0002005 117.2390 242.8996 14.19748970148439
NOAA 20                 
1 43013U 17073A   20269.86587024  .00000008  00000-0  24320-4 0  9991
2 43013  98.7227 206.2788 0001497  76.9401 283.1942 14.19562212147902
GOES 17                 
1 43226U 18022A   20269.73664536  .00000075  00000-0  00000-0 0  9991
2 43226   0.0635 295.8685 0000466 203.9325 353.1925  1.00272203  9459
FENGYUN 2H              
1 43491U 18050A   20269.34905622 -.00000151  00000-0  00000-0 0  9993
2 43491   0.4277 269.6863 0003188 242.1495  57.6373  1.00271501  8545
METOP-C                 
1 43689U 18087A   20269.88722116 -.00000023  00000-0  92825-5 0  9995
2 43689  98.6879 327.9705 0003088  69.5770 290.5738 14.21503152 97863
GEO-KOMPSAT-2A          
1 43823U 18100A   20269.76458911 -.00000367  00000-0  00000+0 0  9996
2 43823   0.0431  10.6378 0001947 112.1932 285.7244  1.00272646  6708
IOD-1 GEMS              
1 44385U 98067QK  20269.00779999  .00036043  00000-0  38682-3 0  9999
2 44385  51.6382 190.6422 0001285  31.2725 328.8346 15.63431462 70052
METEOR-M2 2             
1 44387U 19038A   20269.86770118 -.00000044  00000-0 -32395-6 0  9992
2 44387  98.6291 227.9643 0001065   1.8602 358.2582 14.23680811 63821
